start=new Date('2023-02-18T00:00:00.000Z').valueOf();
sats=[{"MEAN_MOTION_DOT":"-0.00003853","OBJECT_ID":"2022-097AW","INCLINATION":"53.2177","MEAN_ELEMENT_THEORY":"SGP4","SEMIMAJOR_AXIS":"6917.937","CLASSIFICATION_TYPE":"U","ARG_OF_PERICENTER":"86.2720","TIME_SYSTEM":"UTC","CENTER_NAME":"EARTH","MEAN_MOTION":"15.08821339","FILE":"3802730","GP_ID":"225783893","DECAY_DATE":null,"COUNTRY_CODE":"US","RCS_SIZE":"LARGE","TLE_LINE2":"2 53432  53.2177  74.8599 0001097  86.2720 273.8398 15.08821339 30270","ECCENTRICITY":"0.00010970","MEAN_MOTION_DDOT":"0.0000000000000","MEAN_ANOMALY":"273.8398","REF_FRAME":"TEME","REV_AT_EPOCH":"3027","SITE":"AFETR","TLE_LINE1":"1 53432U 22097AW  23048.45493332 -.00003853  00000-0 -22426-3 0  9997","OBJECT_TYPE":"PAYLOAD","EPOCH":"2023-02-17T10:55:06.238848","ELEMENT_SET_NO":"999","PERIOD":"95.439","LAUNCH_DATE":"2022-08-10","BSTAR":"-0.00022426000000","RA_OF_ASC_NODE":"74.8599","OBJECT_NAME":"STARLINK-4557","EPHEMERIS_TYPE":"0","NORAD_CAT_ID":"53432","APOAPSIS":"540.561","PERIAPSIS":"539.044"},{"BSTAR":"0.00162760000000","RA_OF_ASC_NODE":"74.6916","OBJECT_NAME":"STARLINK-4549","EPHEMERIS_TYPE":"0","NORAD_CAT_ID":"53433","APOAPSIS":"540.723","PERIAPSIS":"538.901","MEAN_ANOMALY":"292.3600","REV_AT_EPOCH":"3026","REF_FRAME":"TEME","SITE":"AFETR","TLE_LINE1":"1 53433U 22097AX  23048.54327131  .00025695  00000-0  16276-2 0  9992","OBJECT_TYPE":"PAYLOAD","EPOCH":"2023-02-17T13:02:18.641184","ELEMENT_SET_NO":"999","PERIOD":"95.439","LAUNCH_DATE":"2022-08-10","TIME_SYSTEM":"UTC","CENTER_NAME":"EARTH","MEAN_MOTION":"15.08818209","FILE":"3802730","DECAY_DATE":null,"GP_ID":"225782642","COUNTRY_CODE":"US","RCS_SIZE":"LARGE","TLE_LINE2":"2 53433  53.2165  74.6916 0001317  67.7532 292.3600 15.08818209 30262","ECCENTRICITY":"0.00013170","MEAN_MOTION_DDOT":"0.0000000000000","MEAN_MOTION_DOT":"0.00025695","INCLINATION":"53.2165","OBJECT_ID":"2022-097AX","MEAN_ELEMENT_THEORY":"SGP4","SEMIMAJOR_AXIS":"6917.947","CLASSIFICATION_TYPE":"U","ARG_OF_PERICENTER":"67.7532"},{"DECAY_DATE":null,"GP_ID":"225839655","RCS_SIZE":"LARGE","COUNTRY_CODE":"US","TLE_LINE2":"2 53434  53.2154  73.3531 0001080  85.5527 274.5588 15.08821629 30334","MEAN_MOTION_DDOT":"0.0000000000000","ECCENTRICITY":"0.00010800","TIME_SYSTEM":"UTC","CENTER_NAME":"EARTH","MEAN_MOTION":"15.08821629","FILE":"3804075","MEAN_ELEMENT_THEORY":"SGP4","SEMIMAJOR_AXIS":"6917.937","CLASSIFICATION_TYPE":"U","ARG_OF_PERICENTER":"85.5527","MEAN_MOTION_DOT":"-0.00001850","INCLINATION":"53.2154","OBJECT_ID":"2022-097AY","APOAPSIS":"540.549","PERIAPSIS":"539.054","BSTAR":"-0.00009821300000","RA_OF_ASC_NODE":"73.3531","OBJECT_NAME":"STARLINK-4498","EPHEMERIS_TYPE":"0","NORAD_CAT_ID":"53434","EPOCH":"2023-02-17T18:46:41.960640","OBJECT_TYPE":"PAYLOAD","ELEMENT_SET_NO":"999","PERIOD":"95.439","LAUNCH_DATE":"2022-08-10","MEAN_ANOMALY":"274.5588","REF_FRAME":"TEME","REV_AT_EPOCH":"3033","SITE":"AFETR","TLE_LINE1":"1 53434U 22097AY  23048.78243010 -.00001850  00000-0 -98213-4 0  9994"},{"FILE":"3804075","MEAN_MOTION":"15.08828539","TIME_SYSTEM":"UTC","CENTER_NAME":"EARTH","TLE_LINE2":"2 53435  53.2171  73.3816 0001507  99.3990 260.7173 15.08828539 30302","MEAN_MOTION_DDOT":"0.0000000000000","ECCENTRICITY":"0.00015070","COUNTRY_CODE":"US","RCS_SIZE":"LARGE","DECAY_DATE":null,"GP_ID":"225838403","OBJECT_ID":"2022-097AZ","INCLINATION":"53.2171","MEAN_MOTION_DOT":"0.00004648","ARG_OF_PERICENTER":"99.3990","CLASSIFICATION_TYPE":"U","SEMIMAJOR_AXIS":"6917.915","MEAN_ELEMENT_THEORY":"SGP4","NORAD_CAT_ID":"53435","OBJECT_NAME":"STARLINK-4542","EPHEMERIS_TYPE":"0","RA_OF_ASC_NODE":"73.3816","BSTAR":"0.00031004000000","APOAPSIS":"540.823","PERIAPSIS":"538.738","SITE":"AFETR","TLE_LINE1":"1 53435U 22097AZ  23048.78707824  .00004648  00000-0  31004-3 0  9993","REV_AT_EPOCH":"3030","REF_FRAME":"TEME","MEAN_ANOMALY":"260.7173","LAUNCH_DATE":"2022-08-10","PERIOD":"95.438","OBJECT_TYPE":"PAYLOAD","EPOCH":"2023-02-17T18:53:23.559936","ELEMENT_SET_NO":"999"},{"LAUNCH_DATE":"2022-08-10","PERIOD":"95.438","OBJECT_TYPE":"PAYLOAD","EPOCH":"2023-02-17T18:41:24.058752","ELEMENT_SET_NO":"999","SITE":"AFETR","TLE_LINE1":"1 53436U 22097BA  23048.77875068 -.00000571  00000-0 -17780-4 0  9998","REV_AT_EPOCH":"3032","REF_FRAME":"TEME","MEAN_ANOMALY":"269.2043","APOAPSIS":"540.959","PERIAPSIS":"538.594","NORAD_CAT_ID":"53436","OBJECT_NAME":"STARLINK-4527","EPHEMERIS_TYPE":"0","RA_OF_ASC_NODE":"73.3271","BSTAR":"-0.00001778000000","ARG_OF_PERICENTER":"90.9145","CLASSIFICATION_TYPE":"U","SEMIMAJOR_AXIS":"6917.912","MEAN_ELEMENT_THEORY":"SGP4","OBJECT_ID":"2022-097BA","INCLINATION":"53.2171","MEAN_MOTION_DOT":"-0.00000571","TLE_LINE2":"2 53436  53.2171  73.3271 0001709  90.9145 269.2043 15.08829751 30320","MEAN_MOTION_DDOT":"0.0000000000000","ECCENTRICITY":"0.00017090","COUNTRY_CODE":"US","RCS_SIZE":"LARGE","GP_ID":"225839153","DECAY_DATE":null,"FILE":"3804075","MEAN_MOTION":"15.08829751","TIME_SYSTEM":"UTC","CENTER_NAME":"EARTH"},{"EPOCH":"2023-02-17T12:14:35.461824","OBJECT_TYPE":"PAYLOAD","ELEMENT_SET_NO":"999","LAUNCH_DATE":"2022-08-10","PERIOD":"95.439","MEAN_ANOMALY":"274.8384","SITE":"AFETR","TLE_LINE1":"1 53438U 22097BC  23048.51013266 -.00004587  00000-0 -27052-3 0  9999","REF_FRAME":"TEME","REV_AT_EPOCH":"3029","APOAPSIS":"540.666","PERIAPSIS":"539.006","RA_OF_ASC_NODE":"74.4951","BSTAR":"-0.00027052000000","NORAD_CAT_ID":"53438","OBJECT_NAME":"STARLINK-4526","EPHEMERIS_TYPE":"0","SEMIMAJOR_AXIS":"6917.971","MEAN_ELEMENT_THEORY":"SGP4","ARG_OF_PERICENTER":"85.2745","CLASSIFICATION_TYPE":"U","MEAN_MOTION_DOT":"-0.00004587","INCLINATION":"53.2165","OBJECT_ID":"2022-097BC","DECAY_DATE":null,"GP_ID":"225783142","TLE_LINE2":"2 53438  53.2165  74.4951 0001200  85.2745 274.8384 15.08810350 30292","MEAN_MOTION_DDOT":"0.0000000000000","ECCENTRICITY":"0.00012000","COUNTRY_CODE":"US","RCS_SIZE":"LARGE","TIME_SYSTEM":"UTC","CENTER_NAME":"EARTH","FILE":"3802730","MEAN_MOTION":"15.08810350"},{"RA_OF_ASC_NODE":"73.2791","BSTAR":"-0.00017528000000","NORAD_CAT_ID":"53439","OBJECT_NAME":"STARLINK-4519","EPHEMERIS_TYPE":"0","APOAPSIS":"540.654","PERIAPSIS":"538.875","MEAN_ANOMALY":"269.3732","SITE":"AFETR","TLE_LINE1":"1 53439U 22097BD  23048.77138712 -.00003076  00000-0 -17528-3 0  9991","REV_AT_EPOCH":"3033","REF_FRAME":"TEME","OBJECT_TYPE":"PAYLOAD","EPOCH":"2023-02-17T18:30:47.847168","ELEMENT_SET_NO":"999","LAUNCH_DATE":"2022-08-10","PERIOD":"95.438","TIME_SYSTEM":"UTC","CENTER_NAME":"EARTH","FILE":"3804075","MEAN_MOTION":"15.08833679","GP_ID":"225840155","DECAY_DATE":null,"TLE_LINE2":"2 53439  53.2187  73.2791 0001286  90.7407 269.3732 15.08833679 30336","MEAN_MOTION_DDOT":"0.0000000000000","ECCENTRICITY":"0.00012860","COUNTRY_CODE":"US","RCS_SIZE":"LARGE","MEAN_MOTION_DOT":"-0.00003076","OBJECT_ID":"2022-097BD","INCLINATION":"53.2187","SEMIMAJOR_AXIS":"6917.900","MEAN_ELEMENT_THEORY":"SGP4","ARG_OF_PERICENTER":"90.7407","CLASSIFICATION_TYPE":"U"},{"OBJECT_ID":"2022-099A","INCLINATION":"97.6557","MEAN_MOTION_DOT":"-0.00002201","CLASSIFICATION_TYPE":"U","ARG_OF_PERICENTER":"265.9852","MEAN_ELEMENT_THEORY":"SGP4","SEMIMAJOR_AXIS":"6941.199","MEAN_MOTION":"15.01243154","FILE":"3803621","TIME_SYSTEM":"UTC","CENTER_NAME":"EARTH","COUNTRY_CODE":"US","RCS_SIZE":"LARGE","TLE_LINE2":"2 53465  97.6557 171.6122 0001184 265.9852  94.1237 15.01243154 28816","MEAN_MOTION_DDOT":"0.0000000000000","ECCENTRICITY":"0.00011840","GP_ID":"225805717","DECAY_DATE":null,"REF_FRAME":"TEME","REV_AT_EPOCH":"2881","SITE":"AFWTR","TLE_LINE1":"1 53465U 22099A   23048.83367950 -.00002201  00000-0 -16691-3 0  9996","MEAN_ANOMALY":"94.1237","PERIOD":"95.921","LAUNCH_DATE":"2022-08-12","EPOCH":"2023-02-17T20:00:29.908800","OBJECT_TYPE":"PAYLOAD","ELEMENT_SET_NO":"999","OBJECT_NAME":"STARLINK-4415","EPHEMERIS_TYPE":"0","NORAD_CAT_ID":"53465","BSTAR":"-0.00016691000000","RA_OF_ASC_NODE":"171.6122","APOAPSIS":"563.886","PERIAPSIS":"562.242"},{"OBJECT_TYPE":"PAYLOAD","EPOCH":"2023-02-17T21:33:48.940704","ELEMENT_SET_NO":"999","LAUNCH_DATE":"2022-08-12","PERIOD":"95.920","MEAN_ANOMALY":"171.6598","SITE":"AFWTR","TLE_LINE1":"1 53466U 22099B   23048.89848311 -.00001026  00000-0 -75320-4 0  9997","REV_AT_EPOCH":"2857","REF_FRAME":"TEME","APOAPSIS":"563.685","PERIAPSIS":"562.436","RA_OF_ASC_NODE":"171.6750","BSTAR":"-0.00007532000000","NORAD_CAT_ID":"53466","OBJECT_NAME":"STARLINK-4398","EPHEMERIS_TYPE":"0","SEMIMAJOR_AXIS":"6941.196","MEAN_ELEMENT_THEORY":"SGP4","ARG_OF_PERICENTER":"188.4611","CLASSIFICATION_TYPE":"U","MEAN_MOTION_DOT":"-0.00001026","OBJECT_ID":"2022-099B","INCLINATION":"97.6561","GP_ID":"225838406","DECAY_DATE":null,"TLE_LINE2":"2 53466  97.6561 171.6750 0000900 188.4611 171.6598 15.01244174 28573","ECCENTRICITY":"0.00009000","MEAN_MOTION_DDOT":"0.0000000000000","COUNTRY_CODE":"US","RCS_SIZE":"LARGE","TIME_SYSTEM":"UTC","CENTER_NAME":"EARTH","FILE":"3804075","MEAN_MOTION":"15.01244174"},{"LAUNCH_DATE":"2022-08-12","PERIOD":"95.878","ELEMENT_SET_NO":"999","EPOCH":"2023-02-17T21:28:54.488640","OBJECT_TYPE":"PAYLOAD","TLE_LINE1":"1 53467U 22099C   23048.89507510  .00032496  00000-0  24805-2 0  9994","SITE":"AFWTR","REV_AT_EPOCH":"2857","REF_FRAME":"TEME","MEAN_ANOMALY":"79.1966","PERIAPSIS":"560.351","APOAPSIS":"561.684","NORAD_CAT_ID":"53467","EPHEMERIS_TYPE":"0","OBJECT_NAME":"STARLINK-4394","RA_OF_ASC_NODE":"171.6776","BSTAR":"0.00248050000000","ARG_OF_PERICENTER":"280.9151","CLASSIFICATION_TYPE":"U","MEAN_ELEMENT_THEORY":"SGP4","SEMIMAJOR_AXIS":"6939.153","OBJECT_ID":"2022-099C","INCLINATION":"97.6572","MEAN_MOTION_DOT":"0.00032496","ECCENTRICITY":"0.00009610","MEAN_MOTION_DDOT":"0.0000000000000","TLE_LINE2":"2 53467  97.6572 171.6776 0000961 280.9151  79.1966 15.01907245 28574","COUNTRY_CODE":"US","RCS_SIZE":"LARGE","GP_ID":"225839156","DECAY_DATE":null,"FILE":"3804075","MEAN_MOTION":"15.01907245","CENTER_NAME":"EARTH","TIME_SYSTEM":"UTC"}];
